COSMOS 1933             
1 18958U 88020A   25363.30730692  .00007282  00000+0  36423-3 0  9997
2 18958  82.5135 320.5077 0006502  86.1300 274.0677 15.17259086 39551
SL-3 R/B                
1 19046U 88032B   25363.13451676  .00007518  00000+0  35964-3 0  9993
2 19046  97.5096 341.7446 0028245 117.8531 242.5570 15.18917397 41397
SL-16 R/B               
1 19120U 88039B   25363.02408335 -.00000035  00000+0  63665-5 0  9994
2 19120  71.0124 217.9673 0019540  88.3934 271.9429 14.19599855948358
COSMOS 1953             
1 19210U 88050A   25351.75027580  .00004793  00000+0  17925-3 0  9993
2 19210  82.5093 240.5536 0013540  56.0210 304.2313 15.26995692 25270
SL-8 R/B                
1 19257U 88053B   25362.88281191  .00000374  00000+0  12981-3 0  9991
2 19257  74.0463 242.9683 0018990  80.9972 359.2682 14.38869820966416
COSMOS 1975             
1 19573U 88093A   25363.03671835  .00011409  00000+0  43194-3 0  9993
2 19573  82.5195 188.5107 0012845  61.5476 298.7055 15.26719597  8620
SL-14 R/B               
1 19574U 88093B   25363.34464245  .00000814  00000+0  91107-4 0  9999
2 19574  82.5320 108.0856 0019215 270.9632 149.3051 14.85569153990595
SL-16 R/B               
1 19650U 88102B   25363.26972666 -.00000073  00000+0 -12677-4 0  9991
2 19650  71.0007 299.6626 0012094 123.4837 236.7444 14.16142898916923
INTERCOSMOS 24          
1 20261U 89080A   25362.79191610  .00000810  00000+0  22911-3 0  9994
2 20261  82.6060 150.5173 1189031  97.3000 276.4499 12.59465710657873
SL-14 R/B               
1 20262U 89080C   25362.98529491  .00000435  00000+0  12877-3 0  9991
2 20262  82.5911 218.5910 1230315 346.4645  10.6011 12.50426280651318
DELTA 1 R/B             
1 20323U 89089B   25363.19475750  .00000562  00000+0  14801-3 0  9990
2 20323  97.0742 216.8237 0068769 346.6339  13.3035 14.50586908885518
ARIANE 40 R/B           
1 20443U 90005H   25363.13985288  .00000436  00000+0  15233-3 0  9999
2 20443  98.3222  60.8527 0011055  61.3105 298.9194 14.39811325882655
